IRIDIUM 136             
1 42962U 17061H   24132.84636032  .00001017  00000+0  35586-3 0  9990
2 42962  86.3976 345.5174 0002405  82.3728 277.7741 14.34227380344992
